ICEYE-X40               
1 60549U 24149CK  26187.67409153  .00001793  00000+0  15667-3 0  9990
2 60549  97.6782 263.8562 0004648  24.2043 335.9397 14.98027119102996
ICEYE-X49               
1 62384U 24247H   26187.24650457  .00004361  00000+0  25303-3 0  9998
2 62384  44.9973 255.6048 0001046 238.1818 121.8957 15.13573638 85067
ICEYE-X47               
1 62389U 24247N   26187.68378895  .00002692  00000+0  16211-3 0  9997
2 62389  44.9952 252.8552 0002232 310.3168  49.7515 15.13461464 85136
ICEYE-X42               
1 62698U 25009CT  26187.72504743  .00001495  00000+0  15356-3 0  9994
2 62698  97.7389 265.6884 0001320  91.2261 268.9109 14.91850456 80200
ICEYE-X41               
1 62700U 25009CV  26187.65729297  .00002381  00000+0  21255-3 0  9993
2 62700  97.7069 266.9014 0001112  26.4033 333.7245 14.96886940 80321
ICEYE-X45               
1 62705U 25009DA  26187.73070068  .00002765  00000+0  22238-3 0  9990
2 62705  97.8380 274.5757 0000652  23.4842 336.6411 15.00835012 80614
ICEYE-X44               
1 62707U 25009DC  26187.68218485  .00002613  00000+0  23725-3 0  9997
2 62707  97.7044 266.5006 0002414  85.6257 274.5240 14.96132367102856
ICEYE-X48               
1 63253U 25052AV  26187.62758767  .00002380  00000+0  20603-3 0  9991
2 63253  97.6839  79.5172 0002964 124.3056 235.8447 14.98095409 71589
ICEYE-X50               
1 63255U 25052AX  26187.89843316  .00001638  00000+0  15361-3 0  9997
2 63255  97.6867  79.4136 0003025 118.9645 241.1879 14.95343334 71593
ICEYE-X51               
1 63257U 25052AZ  26187.79185845  .00002930  00000+0  23496-3 0  9998
2 63257  97.7592  82.8498 0002033  69.2278 290.9164 15.00895064 71743
ICEYE-X46               
1 63258U 25052BA  26187.69441439  .00001719  00000+0  16103-3 0  9993
2 63258  97.6861  79.2121 0001487  84.3155 275.8235 14.95342721 71560
ICEYE-X54               
1 64570U 25135AU  26187.84124481  .00002347  00000+0  22160-3 0  9993
2 64570  97.7734 302.0752 0001459 219.2954 140.8160 14.94699772 56831
ICEYE-X52               
1 64572U 25135AW  26187.83309985  .00001207  00000+0  11962-3 0  9990
2 64572  97.7760 301.8679 0000639 242.9053 117.2101 14.93632330 56816
ICEYE-X56               
1 64574U 25135AY  26187.83441527  .00002345  00000+0  21574-3 0  9995
2 64574  97.7758 302.6411 0000799 252.2193 107.8941 14.95729427 56862
ICEYE-X57               
1 64578U 25135BC  26187.86755896  .00003595  00000+0  28732-3 0  9990
2 64578  97.7999 304.3923 0002087  60.1031 300.0399 15.00881770 56972
ICEYE-X55               
1 64581U 25135BF  26187.83963933  .00002573  00000+0  23866-3 0  9992
2 64581  97.7755 302.4771 0001907 284.4943  75.6066 14.95327746 56853
