{"fetched_at":"2026-07-07T07:58:36.206Z","source":"https://celestrak.org/NORAD/elements/gp.php?NAME=ICEYE&FORMAT=JSON","constellation":"iceye","records":[{"OBJECT_NAME":"ICEYE-X40","OBJECT_ID":"2024-149CK","EPOCH":"2026-07-06T16:10:41.508192","CLASSIFICATION_TYPE":"U","MEAN_MOTION":14.98027119,"ECCENTRICITY":0.0004648,"INCLINATION":97.6782,"RA_OF_ASC_NODE":263.8562,"ARG_OF_PERICENTER":24.2043,"MEAN_ANOMALY":335.9397,"EPHEMERIS_TYPE":0,"NORAD_CAT_ID":60549,"ELEMENT_SET_NO":999,"REV_AT_EPOCH":10299,"BSTAR":0.00015667,"MEAN_MOTION_DOT":0.00001793,"MEAN_MOTION_DDOT":0},{"OBJECT_NAME":"ICEYE-X49","OBJECT_ID":"2024-247H","EPOCH":"2026-07-06T05:54:57.994848","CLASSIFICATION_TYPE":"U","MEAN_MOTION":15.13573638,"ECCENTRICITY":0.00010465,"INCLINATION":44.9973,"RA_OF_ASC_NODE":255.6048,"ARG_OF_PERICENTER":238.1818,"MEAN_ANOMALY":121.8957,"EPHEMERIS_TYPE":0,"NORAD_CAT_ID":62384,"ELEMENT_SET_NO":999,"REV_AT_EPOCH":8506,"BSTAR":0.00025302722,"MEAN_MOTION_DOT":0.00004361,"MEAN_MOTION_DDOT":0},{"OBJECT_NAME":"ICEYE-X47","OBJECT_ID":"2024-247N","EPOCH":"2026-07-06T16:24:39.365280","CLASSIFICATION_TYPE":"U","MEAN_MOTION":15.13461464,"ECCENTRICITY":0.0002232,"INCLINATION":44.9952,"RA_OF_ASC_NODE":252.8552,"ARG_OF_PERICENTER":310.3168,"MEAN_ANOMALY":49.7515,"EPHEMERIS_TYPE":0,"NORAD_CAT_ID":62389,"ELEMENT_SET_NO":999,"REV_AT_EPOCH":8513,"BSTAR":0.00016211,"MEAN_MOTION_DOT":0.00002692,"MEAN_MOTION_DDOT":0},{"OBJECT_NAME":"ICEYE-X42","OBJECT_ID":"2025-009CT","EPOCH":"2026-07-06T17:24:04.097952","CLASSIFICATION_TYPE":"U","MEAN_MOTION":14.91850456,"ECCENTRICITY":0.000132,"INCLINATION":97.7389,"RA_OF_ASC_NODE":265.6884,"ARG_OF_PERICENTER":91.2261,"MEAN_ANOMALY":268.9109,"EPHEMERIS_TYPE":0,"NORAD_CAT_ID":62698,"ELEMENT_SET_NO":999,"REV_AT_EPOCH":8020,"BSTAR":0.00015356,"MEAN_MOTION_DOT":0.00001495,"MEAN_MOTION_DDOT":0},{"OBJECT_NAME":"ICEYE-X41","OBJECT_ID":"2025-009CV","EPOCH":"2026-07-06T15:46:30.112608","CLASSIFICATION_TYPE":"U","MEAN_MOTION":14.9688694,"ECCENTRICITY":0.0001112,"INCLINATION":97.7069,"RA_OF_ASC_NODE":266.9014,"ARG_OF_PERICENTER":26.4033,"MEAN_ANOMALY":333.7245,"EPHEMERIS_TYPE":0,"NORAD_CAT_ID":62700,"ELEMENT_SET_NO":999,"REV_AT_EPOCH":8032,"BSTAR":0.00021255,"MEAN_MOTION_DOT":0.00002381,"MEAN_MOTION_DDOT":0},{"OBJECT_NAME":"ICEYE-X45","OBJECT_ID":"2025-009DA","EPOCH":"2026-07-06T17:32:12.538752","CLASSIFICATION_TYPE":"U","MEAN_MOTION":15.00835012,"ECCENTRICITY":0.0000652,"INCLINATION":97.838,"RA_OF_ASC_NODE":274.5757,"ARG_OF_PERICENTER":23.4842,"MEAN_ANOMALY":336.6411,"EPHEMERIS_TYPE":0,"NORAD_CAT_ID":62705,"ELEMENT_SET_NO":999,"REV_AT_EPOCH":8061,"BSTAR":0.00022238,"MEAN_MOTION_DOT":0.00002765,"MEAN_MOTION_DDOT":0},{"OBJECT_NAME":"ICEYE-X44","OBJECT_ID":"2025-009DC","EPOCH":"2026-07-06T16:22:20.771040","CLASSIFICATION_TYPE":"U","MEAN_MOTION":14.96132367,"ECCENTRICITY":0.0002414,"INCLINATION":97.7044,"RA_OF_ASC_NODE":266.5006,"ARG_OF_PERICENTER":85.6257,"MEAN_ANOMALY":274.524,"EPHEMERIS_TYPE":0,"NORAD_CAT_ID":62707,"ELEMENT_SET_NO":999,"REV_AT_EPOCH":10285,"BSTAR":0.00023725,"MEAN_MOTION_DOT":0.00002613,"MEAN_MOTION_DDOT":0},{"OBJECT_NAME":"ICEYE-X48","OBJECT_ID":"2025-052AV","EPOCH":"2026-07-06T15:03:43.574688","CLASSIFICATION_TYPE":"U","MEAN_MOTION":14.98095409,"ECCENTRICITY":0.0002964,"INCLINATION":97.6839,"RA_OF_ASC_NODE":79.5172,"ARG_OF_PERICENTER":124.3056,"MEAN_ANOMALY":235.8447,"EPHEMERIS_TYPE":0,"NORAD_CAT_ID":63253,"ELEMENT_SET_NO":999,"REV_AT_EPOCH":7158,"BSTAR":0.00020603,"MEAN_MOTION_DOT":0.0000238,"MEAN_MOTION_DDOT":0},{"OBJECT_NAME":"ICEYE-X50","OBJECT_ID":"2025-052AX","EPOCH":"2026-07-06T21:33:44.625024","CLASSIFICATION_TYPE":"U","MEAN_MOTION":14.95343334,"ECCENTRICITY":0.0003025,"INCLINATION":97.6867,"RA_OF_ASC_NODE":79.4136,"ARG_OF_PERICENTER":118.9645,"MEAN_ANOMALY":241.1879,"EPHEMERIS_TYPE":0,"NORAD_CAT_ID":63255,"ELEMENT_SET_NO":999,"REV_AT_EPOCH":7159,"BSTAR":0.00015361,"MEAN_MOTION_DOT":0.00001638,"MEAN_MOTION_DDOT":0},{"OBJECT_NAME":"ICEYE-X51","OBJECT_ID":"2025-052AZ","EPOCH":"2026-07-06T19:00:16.570080","CLASSIFICATION_TYPE":"U","MEAN_MOTION":15.00895064,"ECCENTRICITY":0.0002033,"INCLINATION":97.7592,"RA_OF_ASC_NODE":82.8498,"ARG_OF_PERICENTER":69.2278,"MEAN_ANOMALY":290.9164,"EPHEMERIS_TYPE":0,"NORAD_CAT_ID":63257,"ELEMENT_SET_NO":999,"REV_AT_EPOCH":7174,"BSTAR":0.00023496,"MEAN_MOTION_DOT":0.0000293,"MEAN_MOTION_DDOT":0},{"OBJECT_NAME":"ICEYE-X46","OBJECT_ID":"2025-052BA","EPOCH":"2026-07-06T16:39:57.403296","CLASSIFICATION_TYPE":"U","MEAN_MOTION":14.95342721,"ECCENTRICITY":0.0001487,"INCLINATION":97.6861,"RA_OF_ASC_NODE":79.2121,"ARG_OF_PERICENTER":84.3155,"MEAN_ANOMALY":275.8235,"EPHEMERIS_TYPE":0,"NORAD_CAT_ID":63258,"ELEMENT_SET_NO":999,"REV_AT_EPOCH":7156,"BSTAR":0.00016103,"MEAN_MOTION_DOT":0.00001719,"MEAN_MOTION_DDOT":0},{"OBJECT_NAME":"ICEYE-X54","OBJECT_ID":"2025-135AU","EPOCH":"2026-07-06T20:11:23.551584","CLASSIFICATION_TYPE":"U","MEAN_MOTION":14.94699772,"ECCENTRICITY":0.0001459,"INCLINATION":97.7734,"RA_OF_ASC_NODE":302.0752,"ARG_OF_PERICENTER":219.2954,"MEAN_ANOMALY":140.816,"EPHEMERIS_TYPE":0,"NORAD_CAT_ID":64570,"ELEMENT_SET_NO":999,"REV_AT_EPOCH":5683,"BSTAR":0.0002216,"MEAN_MOTION_DOT":0.00002347,"MEAN_MOTION_DDOT":0},{"OBJECT_NAME":"ICEYE-X52","OBJECT_ID":"2025-135AW","EPOCH":"2026-07-06T19:59:39.827040","CLASSIFICATION_TYPE":"U","MEAN_MOTION":14.9363233,"ECCENTRICITY":0.0000639,"INCLINATION":97.776,"RA_OF_ASC_NODE":301.8679,"ARG_OF_PERICENTER":242.9053,"MEAN_ANOMALY":117.2101,"EPHEMERIS_TYPE":0,"NORAD_CAT_ID":64572,"ELEMENT_SET_NO":999,"REV_AT_EPOCH":5681,"BSTAR":0.00011962,"MEAN_MOTION_DOT":0.00001207,"MEAN_MOTION_DDOT":0},{"OBJECT_NAME":"ICEYE-X56","OBJECT_ID":"2025-135AY","EPOCH":"2026-07-06T20:01:33.479328","CLASSIFICATION_TYPE":"U","MEAN_MOTION":14.95729427,"ECCENTRICITY":0.0000799,"INCLINATION":97.7758,"RA_OF_ASC_NODE":302.6411,"ARG_OF_PERICENTER":252.2193,"MEAN_ANOMALY":107.8941,"EPHEMERIS_TYPE":0,"NORAD_CAT_ID":64574,"ELEMENT_SET_NO":999,"REV_AT_EPOCH":5686,"BSTAR":0.00021574,"MEAN_MOTION_DOT":0.00002345,"MEAN_MOTION_DDOT":0},{"OBJECT_NAME":"ICEYE-X57","OBJECT_ID":"2025-135BC","EPOCH":"2026-07-06T20:49:17.094144","CLASSIFICATION_TYPE":"U","MEAN_MOTION":15.0088177,"ECCENTRICITY":0.0002087,"INCLINATION":97.7999,"RA_OF_ASC_NODE":304.3923,"ARG_OF_PERICENTER":60.1031,"MEAN_ANOMALY":300.0399,"EPHEMERIS_TYPE":0,"NORAD_CAT_ID":64578,"ELEMENT_SET_NO":999,"REV_AT_EPOCH":5697,"BSTAR":0.00028732,"MEAN_MOTION_DOT":0.00003595,"MEAN_MOTION_DDOT":0},{"OBJECT_NAME":"ICEYE-X55","OBJECT_ID":"2025-135BF","EPOCH":"2026-07-06T20:09:04.838112","CLASSIFICATION_TYPE":"U","MEAN_MOTION":14.95327746,"ECCENTRICITY":0.0001907,"INCLINATION":97.7755,"RA_OF_ASC_NODE":302.4771,"ARG_OF_PERICENTER":284.4943,"MEAN_ANOMALY":75.6066,"EPHEMERIS_TYPE":0,"NORAD_CAT_ID":64581,"ELEMENT_SET_NO":999,"REV_AT_EPOCH":5685,"BSTAR":0.00023866,"MEAN_MOTION_DOT":0.00002573,"MEAN_MOTION_DDOT":0}]}
